
# Worst residual: 109.19 km
# MJD 59524.000000 (2021 Nov  6  0:00)
ZTF0LAq = ZTF0LAZ = ZTF0LBm
1 89957U 00000ABQ 21310.49919926  .00000000  00000-0  00000-0 0 13708
2 89957 012.5289 048.5726 4156006 151.9360 046.7111 01.02076391    05

# Worst residual: 119.75 km
# MJD 59525.000000 (2021 Nov  7  0:00)
ZTF0LAq = ZTF0LAZ = ZTF0LBm
1 89957U 00000ABQ 21311.49919926  .00000000  00000-0  00000-0 0 13709
2 89957 012.6065 048.3838 4116811 153.3899 051.4779 01.02072507    01

# Worst residual: 129.23 km
# MJD 59526.000000 (2021 Nov  8  0:00)
ZTF0LAq = ZTF0LAZ = ZTF0LBm
1 89957U 00000ABQ 21312.49919926  .00000000  00000-0  00000-0 0 13700
2 89957 012.6842 048.2054 4076381 154.8554 056.2312 01.02063301    02

# Worst residual: 142.26 km
# MJD 59527.000000 (2021 Nov  9  0:00)
ZTF0LAq = ZTF0LAZ = ZTF0LBm
1 89957U 00000ABQ 21313.49919926  .00000000  00000-0  00000-0 0 13701
2 89957 012.7670 048.0099 4037836 156.3486 060.9719 01.02059052    03

# Worst residual: 154.38 km
# MJD 59528.000000 (2021 Nov 10  0:00)
ZTF0LAq = ZTF0LAZ = ZTF0LBm
1 89957U 00000ABQ 21314.49919926  .00000000  00000-0  00000-0 0 13702
2 89957 012.8475 047.8403 3999168 157.8397 065.6948 01.02049025    09

# Worst residual: 166.50 km
# MJD 59529.000000 (2021 Nov 11  0:00)
ZTF0LAq = ZTF0LAZ = ZTF0LBm
1 89957U 00000ABQ 21315.49919926  .00000000  00000-0  00000-0 0 13703
2 89957 012.9280 047.6816 3961035 159.3413 070.3989 01.02036949    07

# Worst residual: 178.01 km
# MJD 59530.000000 (2021 Nov 12  0:00)
ZTF0LAq = ZTF0LAZ = ZTF0LBm
1 89957U 00000ABQ 21316.49919926  .00000000  00000-0  00000-0 0 13704
2 89957 013.0128 047.4753 3924272 160.9199 075.0701 01.02018187    07

# Worst residual: 186.50 km
# MJD 59531.000000 (2021 Nov 13  0:00)
ZTF0LAq = ZTF0LAZ = ZTF0LBm
1 89957U 00000ABQ 21317.49919926  .00000000  00000-0  00000-0 0 13705
2 89957 013.0917 047.4275 3885272 162.3531 079.7506 01.02012433    06

# Worst residual: 197.61 km
# MJD 59532.000000 (2021 Nov 14  0:00)
ZTF0LAq = ZTF0LAZ = ZTF0LBm
1 89957U 00000ABQ 21318.49919926  .00000000  00000-0  00000-0 0 13706
2 89957 013.1652 047.2624 3850077 163.9344 084.3763 01.01995972    07

# Worst residual: 205.88 km
# MJD 59533.000000 (2021 Nov 15  0:00)
ZTF0LAq = ZTF0LAZ = ZTF0LBm
1 89957U 00000ABQ 21319.49919926  .00000000  00000-0  00000-0 0 13707
2 89957 013.2616 047.0838 3813629 165.5549 089.0028 01.01980902    03

# Worst residual: 211.55 km
# MJD 59534.000000 (2021 Nov 16  0:00)
ZTF0LAq = ZTF0LAZ = ZTF0LBm
1 89957U 00000ABQ 21320.49919926  .00000000  00000-0  00000-0 0 13709
2 89957 013.3140 047.1140 3775889 166.9785 093.6075 01.01948061    08

# Worst residual: 219.02 km
# MJD 59535.000000 (2021 Nov 17  0:00)
ZTF0LAq = ZTF0LAZ = ZTF0LBm
1 89957U 00000ABQ 21321.49919926  .00000000  00000-0  00000-0 0 13700
2 89957 013.4125 046.9541 3741188 168.6230 098.1734 01.01927765    03

# Worst residual: 221.77 km
# MJD 59536.000000 (2021 Nov 18  0:00)
ZTF0LAq = ZTF0LAZ = ZTF0LBm
1 89957U 00000ABQ 21322.49919926  .00000000  00000-0  00000-0 0 13701
2 89957 013.4930 046.8715 3705818 170.2155 102.7256 01.01904426    04

# Worst residual: 217.17 km
# MJD 59537.000000 (2021 Nov 19  0:00)
ZTF0LAq = ZTF0LAZ = ZTF0LBm
1 89957U 00000ABQ 21323.49919926  .00000000  00000-0  00000-0 0 13702
2 89957 013.5723 046.8061 3669632 171.8278 107.2443 01.01870153    02

# Worst residual: 220.40 km
# MJD 59538.000000 (2021 Nov 20  0:00)
ZTF0LAq = ZTF0LAZ = ZTF0LBm
1 89957U 00000ABQ 21324.49919926  .00000000  00000-0  00000-0 0 13703
2 89957 013.6526 046.7395 3636296 173.4375 111.7660 01.01854056    04

# Worst residual: 206.04 km
# MJD 59539.000000 (2021 Nov 21  0:00)
ZTF0LAq = ZTF0LAZ = ZTF0LBm
1 89957U 00000ABQ 21325.49919926  .00000000  00000-0  00000-0 0 13704
2 89957 013.7433 046.7199 3603860 175.0541 116.2454 01.01820111    04

# Worst residual: 209.86 km
# MJD 59540.000000 (2021 Nov 22  0:00)
ZTF0LAq = ZTF0LAZ = ZTF0LBm
1 89957U 00000ABQ 21326.49919926  .00000000  00000-0  00000-0 0 13705
2 89957 013.8090 046.6499 3568786 176.7087 120.7220 01.01799447    04

# Worst residual: 210.89 km
# MJD 59541.000000 (2021 Nov 23  0:00)
ZTF0LAq = ZTF0LAZ = ZTF0LBm
1 89957U 00000ABQ 21327.49919926  .00000000  00000-0  00000-0 0 13706
2 89957 013.8858 046.6199 3535950 178.3634 125.1681 01.01771049    04

# Worst residual: 206.33 km
# MJD 59542.000000 (2021 Nov 24  0:00)
ZTF0LAq = ZTF0LAZ = ZTF0LBm
1 89957U 00000ABQ 21328.49919926  .00000000  00000-0  00000-0 0 13707
2 89957 013.9650 046.6182 3505383 180.0190 129.5856 01.01742043    05

# Worst residual: 209.28 km
# MJD 59543.000000 (2021 Nov 25  0:00)
ZTF0LAq = ZTF0LAZ = ZTF0LBm
1 89957U 00000ABQ 21329.49919926  .00000000  00000-0  00000-0 0 13708
2 89957 014.0400 046.5408 3473536 181.7569 133.9877 01.01710948    03

# Worst residual: 213.63 km
# MJD 59544.000000 (2021 Nov 26  0:00)
ZTF0LAq = ZTF0LAZ = ZTF0LBm
1 89957U 00000ABQ 21330.49919926  .00000000  00000-0  00000-0 0 13700
2 89957 014.0936 046.6079 3442438 183.3872 138.3716 01.01681587    01

# Worst residual: 207.09 km
# MJD 59545.000000 (2021 Nov 27  0:00)
ZTF0LAq = ZTF0LAZ = ZTF0LBm
1 89957U 00000ABQ 21331.49919926  .00000000  00000-0  00000-0 0 13701
2 89957 014.1825 046.5925 3412017 185.1142 142.7358 01.01655032    05
